{
  "type": "FeatureCollection",
  "features": [
    {
      "type": "Feature",
      "properties": {
        "norad_id": 66801,
        "name": "STARLINK-36080",
        "group": "last-30-days",
        "lat": 10.151026225181422,
        "lon": 25.349924381943094,
        "alt_km": 355.8589629373282,
        "timestamp": "2025-12-18T13:51:48.379797+00:00",
        "meta_object_name": "STARLINK-36080",
        "meta_object_id": "2025-278L",
        "meta_epoch": "2025-12-18T06:00:02.999808",
        "meta_mean_motion": 15.7202076,
        "meta_eccentricity": 0.00016416,
        "meta_inclination": 42.9992,
        "meta_ra_of_asc_node": 218.4052,
        "meta_arg_of_pericenter": 273.163,
        "meta_mean_anomaly": 196.3399,
        "meta_ephemeris_type": 0,
        "meta_classification_type": "U",
        "meta_norad_cat_id": 66801,
        "meta_element_set_no": 999,
        "meta_rev_at_epoch": 384,
        "meta_bstar": -0.01636227,
        "meta_mean_motion_dot": -0.01953747,
        "meta_mean_motion_ddot": 0,
        "tle_line1": "1 66801U 25278L   25352.25003472 -.01953747  00000+0 -16362-1 0  9991",
        "tle_line2": "2 66801  42.9992 218.4052 0001641 273.1630 196.3399 15.72020760  3849"
      },
      "geometry": {
        "type": "Point",
        "coordinates": [
          25.349924381943094,
          10.151026225181422
        ]
      }
    },
    {
      "type": "Feature",
      "properties": {
        "norad_id": 66802,
        "name": "STARLINK-35604",
        "group": "last-30-days",
        "lat": 17.699356095041953,
        "lon": 16.430093421810454,
        "alt_km": 354.9723071151784,
        "timestamp": "2025-12-18T13:51:48.379810+00:00",
        "meta_object_name": "STARLINK-35604",
        "meta_object_id": "2025-278M",
        "meta_epoch": "2025-12-18T06:00:02.999808",
        "meta_mean_motion": 15.72018372,
        "meta_eccentricity": 0.00014547,
        "meta_inclination": 42.9991,
        "meta_ra_of_asc_node": 218.4354,
        "meta_arg_of_pericenter": 278.2642,
        "meta_mean_anomaly": 179.741,
        "meta_ephemeris_type": 0,
        "meta_classification_type": "U",
        "meta_norad_cat_id": 66802,
        "meta_element_set_no": 999,
        "meta_rev_at_epoch": 384,
        "meta_bstar": -0.016357496,
        "meta_mean_motion_dot": -0.01952915,
        "meta_mean_motion_ddot": 0,
        "tle_line1": "1 66802U 25278M   25352.25003472 -.01952915  00000+0 -16357-1 0  9992",
        "tle_line2": "2 66802  42.9991 218.4354 0001454 278.2642 179.7410 15.72018372  3840"
      },
      "geometry": {
        "type": "Point",
        "coordinates": [
          16.430093421810454,
          17.699356095041953
        ]
      }
    },
    {
      "type": "Feature",
      "properties": {
        "norad_id": 66803,
        "name": "STARLINK-35565",
        "group": "last-30-days",
        "lat": 15.221971592248554,
        "lon": 19.46952955548794,
        "alt_km": 355.13126453548284,
        "timestamp": "2025-12-18T13:51:48.379827+00:00",
        "meta_object_name": "STARLINK-35565",
        "meta_object_id": "2025-278N",
        "meta_epoch": "2025-12-18T06:00:02.999808",
        "meta_mean_motion": 15.72019067,
        "meta_eccentricity": 0.00014525,
        "meta_inclination": 42.9991,
        "meta_ra_of_asc_node": 218.4255,
        "meta_arg_of_pericenter": 270.6202,
        "meta_mean_anomaly": 191.2149,
        "meta_ephemeris_type": 0,
        "meta_classification_type": "U",
        "meta_norad_cat_id": 66803,
        "meta_element_set_no": 999,
        "meta_rev_at_epoch": 393,
        "meta_bstar": -0.016332112,
        "meta_mean_motion_dot": -0.01950284,
        "meta_mean_motion_ddot": 0,
        "tle_line1": "1 66803U 25278N   25352.25003472 -.01950284  00000+0 -16332-1 0  9993",
        "tle_line2": "2 66803  42.9991 218.4255 0001452 270.6202 191.2149 15.72019067  3937"
      },
      "geometry": {
        "type": "Point",
        "coordinates": [
          19.46952955548794,
          15.221971592248554
        ]
      }
    },
    {
      "type": "Feature",
      "properties": {
        "norad_id": 66804,
        "name": "STARLINK-36038",
        "group": "last-30-days",
        "lat": 13.967067713054734,
        "lon": 20.96327689781208,
        "alt_km": 355.4831583068162,
        "timestamp": "2025-12-18T13:51:48.379838+00:00",
        "meta_object_name": "STARLINK-36038",
        "meta_object_id": "2025-278P",
        "meta_epoch": "2025-12-18T06:00:02.999808",
        "meta_mean_motion": 15.72020789,
        "meta_eccentricity": 0.00016103,
        "meta_inclination": 42.9991,
        "meta_ra_of_asc_node": 218.4214,
        "meta_arg_of_pericenter": 277.298,
        "meta_mean_anomaly": 186.4528,
        "meta_ephemeris_type": 0,
        "meta_classification_type": "U",
        "meta_norad_cat_id": 66804,
        "meta_element_set_no": 999,
        "meta_rev_at_epoch": 384,
        "meta_bstar": -0.0163507,
        "meta_mean_motion_dot": -0.01952502,
        "meta_mean_motion_ddot": 0,
        "tle_line1": "1 66804U 25278P   25352.25003472 -.01952502  00000+0 -16351-1 0  9990",
        "tle_line2": "2 66804  42.9991 218.4214 0001610 277.2980 186.4528 15.72020789  3845"
      },
      "geometry": {
        "type": "Point",
        "coordinates": [
          20.96327689781208,
          13.967067713054734
        ]
      }
    },
    {
      "type": "Feature",
      "properties": {
        "norad_id": 66805,
        "name": "STARLINK-36049",
        "group": "last-30-days",
        "lat": 11.428641502139904,
        "lon": 23.90402076832605,
        "alt_km": 355.71750825252093,
        "timestamp": "2025-12-18T13:51:48.379851+00:00",
        "meta_object_name": "STARLINK-36049",
        "meta_object_id": "2025-278Q",
        "meta_epoch": "2025-12-18T06:00:02.999808",
        "meta_mean_motion": 15.72019596,
        "meta_eccentricity": 0.00014882,
        "meta_inclination": 42.999,
        "meta_ra_of_asc_node": 218.4111,
        "meta_arg_of_pericenter": 275.2873,
        "meta_mean_anomaly": 192.3009,
        "meta_ephemeris_type": 0,
        "meta_classification_type": "U",
        "meta_norad_cat_id": 66805,
        "meta_element_set_no": 999,
        "meta_rev_at_epoch": 384,
        "meta_bstar": -0.016361918,
        "meta_mean_motion_dot": -0.01953499,
        "meta_mean_motion_ddot": 0,
        "tle_line1": "1 66805U 25278Q   25352.25003472 -.01953499  00000+0 -16362-1 0  9999",
        "tle_line2": "2 66805  42.9990 218.4111 0001488 275.2873 192.3009 15.72019596  3847"
      },
      "geometry": {
        "type": "Point",
        "coordinates": [
          23.90402076832605,
          11.428641502139904
        ]
      }
    },
    {
      "type": "Feature",
      "properties": {
        "norad_id": 66806,
        "name": "STARLINK-36069",
        "group": "last-30-days",
        "lat": 12.70069517928605,
        "lon": 22.44217477176285,
        "alt_km": 355.5866986991123,
        "timestamp": "2025-12-18T13:51:48.379861+00:00",
        "meta_object_name": "STARLINK-36069",
        "meta_object_id": "2025-278R",
        "meta_epoch": "2025-12-18T06:00:02.999808",
        "meta_mean_motion": 15.72019031,
        "meta_eccentricity": 0.00014618,
        "meta_inclination": 42.999,
        "meta_ra_of_asc_node": 218.416,
        "meta_arg_of_pericenter": 276.9313,
        "meta_mean_anomaly": 188.7401,
        "meta_ephemeris_type": 0,
        "meta_classification_type": "U",
        "meta_norad_cat_id": 66806,
        "meta_element_set_no": 999,
        "meta_rev_at_epoch": 363,
        "meta_bstar": -0.016352002,
        "meta_mean_motion_dot": -0.01952389,
        "meta_mean_motion_ddot": 0,
        "tle_line1": "1 66806U 25278R   25352.25003472 -.01952389  00000+0 -16352-1 0  9996",
        "tle_line2": "2 66806  42.9990 218.4160 0001461 276.9313 188.7401 15.72019031  3636"
      },
      "geometry": {
        "type": "Point",
        "coordinates": [
          22.44217477176285,
          12.70069517928605
        ]
      }
    },
    {
      "type": "Feature",
      "properties": {
        "norad_id": 66807,
        "name": "STARLINK-36000",
        "group": "last-30-days",
        "lat": 8.865079124578141,
        "lon": 26.78886446804294,
        "alt_km": 356.00258941154607,
        "timestamp": "2025-12-18T13:51:48.379871+00:00",
        "meta_object_name": "STARLINK-36000",
        "meta_object_id": "2025-278S",
        "meta_epoch": "2025-12-18T06:00:02.999808",
        "meta_mean_motion": 15.7202163,
        "meta_eccentricity": 0.00016061,
        "meta_inclination": 42.9994,
        "meta_ra_of_asc_node": 218.4017,
        "meta_arg_of_pericenter": 273.4441,
        "meta_mean_anomaly": 197.9742,
        "meta_ephemeris_type": 0,
        "meta_classification_type": "U",
        "meta_norad_cat_id": 66807,
        "meta_element_set_no": 999,
        "meta_rev_at_epoch": 390,
        "meta_bstar": -0.016357985,
        "meta_mean_motion_dot": -0.0195333,
        "meta_mean_motion_ddot": 0,
        "tle_line1": "1 66807U 25278S   25352.25003472 -.01953330  00000+0 -16358-1 0  9990",
        "tle_line2": "2 66807  42.9994 218.4017 0001606 273.4441 197.9742 15.72021630  3905"
      },
      "geometry": {
        "type": "Point",
        "coordinates": [
          26.78886446804294,
          8.865079124578141
        ]
      }
    }
  ]
}